CIC_OEM_VERS = 2.0
ORIGINATOR   = C²ERES
Date         = 08-August-2016 18:10:48

TARGET_NAME  = JUPITER
TARGET_ID    = OBJECT-jupiter

CENTER_NAME  = SUN
REF_FRAME    = ECLIPTICJ2000
TIME_SYSTEM  = UTC

META_START

COLUMN #01   : Day of the date in (MJD)
COLUMN #02   : Fractional seconds in the day (in seconds)
COLUMN #03   : Latitude  of the target body (in degree)
COLUMN #04   : Longitude of the target body (in degree)
COLUMN #05   : The radii of the target body (in km)

META_STOP

58626	61986.1593783	-0.614434926122	81.458165542	649491207.999	
58626	61986.1593783	-0.614236930143	81.406282384	649275742.715	
58626	83586.1593783	-0.617561782097	81.4026731623	648893644.108	
58627	18786.1593783	-0.646290619495	81.3936416333	648215777.748	
58627	40386.1593783	-0.675072190065	81.3844575696	647540716.79	
58627	61986.1593783	-0.703904948365	81.3751672061	646868362.976	
58627	83586.1593783	-0.73279101185	81.3657792397	646198653.702	
58628	18786.1593783	-0.761730939714	81.3562969446	645531555.495	
58628	40386.1593783	-0.790724683055	81.3467222917	644867045.468	
58628	61986.1593783	-0.81977194013	81.3370568073	644205105.156	
58628	83586.1593783	-0.848872291639	81.3273018246	643545718.238	
58629	18786.1593783	-0.878025259151	81.3174585764	642888869.555	
58629	40386.1593783	-0.907230333241	81.3075282352	642234544.645	
58629	61986.1593783	-0.936486988266	81.2975119328	641582729.494	
58629	83586.1593783	-0.965794690674	81.2874107706	640933410.399	
58630	18786.1593783	-0.995152903929	81.2772258256	640286573.886	
58630	40386.1593783	-1.02456109156	81.2669581543	639642206.657	
58630	61986.1593783	-1.05401871912	81.2566087948	639000295.56	
58630	83586.1593783	-1.08352525545	81.2461787686	638360827.562	
58631	18786.1593783	-1.11308017357	81.2356690816	637723789.739	
58631	40386.1593783	-1.14268295121	81.2250807252	637089169.261	
58631	61986.1593783	-1.17233307125	81.2144146766	636456953.387	
58631	83586.1593783	-1.20203002196	81.2036718995	635827129.46	
58632	18786.1593783	-1.23177329718	81.1928533447	635199684.899	
58632	40386.1593783	-1.26156239643	81.18195995	634574607.202	
58632	61986.1593783	-1.29139682498	81.170992641	633951883.938	
58632	83586.1593783	-1.32127609388	81.1599523311	633331502.75	
58633	18786.1593783	-1.35119971997	81.1488399218	632713451.35	
58633	40386.1593783	-1.38116722586	81.137656303	632097717.522	
58633	61986.1593783	-1.41117813989	81.126402353	631484289.117	
58633	83586.1593783	-1.44123199614	81.1150789392	630873154.055	
58634	18786.1593783	-1.47132833431	81.1036869175	630264300.325	
58634	40386.1593783	-1.50146669974	81.0922271332	629657715.982	
58634	61986.1593783	-1.53164664331	81.0807004209	629053389.151	
58634	83586.1593783	-1.56186772137	81.0691076045	628451308.021	
58635	18786.1593783	-1.59212949573	81.0574494978	627851460.85	
58635	40386.1593783	-1.62243153354	81.0457269041	627253835.964	
58635	61986.1593783	-1.65277340723	81.0339406168	626658421.753	
58635	83586.1593783	-1.68315469448	81.0220914193	626065206.677	
58636	18786.1593783	-1.71357497812	81.0101800853	625474179.26	
58636	40386.1593783	-1.74403384606	80.9982073788	624885328.093	
58636	61986.1593783	-1.77453089122	80.9861740545	624298641.835	
58636	83586.1593783	-1.80506571148	80.9740808574	623714109.21	
58637	18786.1593783	-1.83563790961	80.9619285236	623131719.009	
58637	40386.1593783	-1.86624709316	80.94971778	622551460.087	
58637	61986.1593783	-1.89689287447	80.9374493445	621973321.37	
58637	83586.1593783	-1.92757487051	80.9251239263	621397291.844	
58638	18786.1593783	-1.95829270288	80.9127422256	620823360.565	
58638	40386.1593783	-1.98904599774	80.9003049344	620251516.654	
58638	61986.1593783	-2.0198343857	80.887812736	619681749.296	
58638	83586.1593783	-2.05065750179	80.8752663054	619114047.742	
58639	18786.1593783	-2.08151498541	80.8626663094	618548401.31	
58639	40386.1593783	-2.11240648023	80.8500134067	617984799.382	
58639	61986.1593783	-2.14333163415	80.8373082479	617423231.403	
58639	83586.1593783	-2.17429009923	80.8245514758	616863686.886	
58640	18786.1593783	-2.20528153163	80.8117437254	616306155.407	
58640	40386.1593783	-2.23630559157	80.798885624	615750626.606	
58640	61986.1593783	-2.26736194325	80.7859777914	615197090.188	
58640	83586.1593783	-2.29845025478	80.77302084	614645535.921	
58641	18786.1593783	-2.32957019816	80.7600153746	614095953.639	
58641	40386.1593783	-2.36072144919	80.746961993	613548333.236	
